TDRS 11                 
1 39070U 13004A   26065.19052839  .00000076  00000+0  00000+0 0  9994
2 39070   3.3700  29.3865 0004000 351.2846  37.5159  1.00277199 45667
TDRS 12                 
1 39504U 14004A   26065.20638466 -.00000274  00000+0  00000+0 0  9996
2 39504   3.8776  17.2735 0003879 268.0275 272.0156  1.00269453 43242
GPM-CORE                
1 39574U 14009C   26065.21407260  .00009178  00000+0  20062-3 0  9990
2 39574  64.9728 293.1301 0012423 265.0003  94.9719 15.44646426681908
MMS 1                   
1 40482U 15011A   26065.33334491 -.00001909  00000+0  00000+0 0  9993
2 40482  70.7905 350.2010 8416437 165.2537 247.4435  0.28337049  1333
MMS 2                   
1 40483U 15011B   26065.33334491 -.00001909  00000+0  00000+0 0  9994
2 40483  70.7908 350.2031 8417167 165.2598 247.4271  0.28337051  1339
MMS 3                   
1 40484U 15011C   26065.33334491 -.00001909  00000+0  00000+0 0  9995
2 40484  70.7931 350.2078 8416452 165.2540 247.4355  0.28337022  1331
MMS 4                   
1 40485U 15011D   26065.33334491 -.00001908  00000+0  00000+0 0  9995
2 40485  70.7912 350.2029 8415953 165.2613 247.4212  0.28337020  1333
TDRS 13                 
1 42915U 17047A   26065.20155875 -.00000104  00000+0  00000+0 0  9996
2 42915   3.4298   0.1090 0010438  98.7322 126.1699  1.00272313 31317
NOAA 20 (JPSS-1)        
1 43013U 17073A   26065.30413478  .00000124  00000+0  79552-4 0  9996
2 43013  98.7689   5.7250 0001061 141.7646 218.3606 14.19535050429875
